STARLINK-2065           
1 47672U 21012BE  25062.81147038 -.00000560  00000+0 -18700-4 0  9991
2 47672  53.0537 266.5528 0000596  83.9454 276.1603 15.06392608223987
STARLINK-2078           
1 47675U 21012BH  25062.49479847  .01010216  00000+0  30707-2 0  9991
2 47675  53.0453 242.8058 0001993 275.2994  84.7803 15.89119959224814
STARLINK-2083           
1 47676U 21012BJ  25062.59214856  .00016874  00000+0  11497-2 0  9990
2 47676  53.0538 167.5383 0001695  84.2354 275.8828 15.06376830225857
STARLINK-2095           
1 47679U 21012BM  25062.79780249  .00032740  00000+0  16920-2 0  9995
2 47679  53.0467 291.5479 0001051 155.9060 204.1982 15.16013013223644
STARLINK-2068           
1 47722U 21017A   25062.72164774  .00002219  00000+0  16784-3 0  9998
2 47722  53.0551  62.1968 0001341  86.4772 273.6370 15.06391143221396
STARLINK-2107           
1 47723U 21017B   25062.53040214  .00005037  00000+0  35672-3 0  9998
2 47723  53.0557 357.8166 0001327  79.0769 281.0369 15.06408943222282
STARLINK-2116           
1 47724U 21017C   25062.23554310  .00021511  00000+0  14579-2 0  9990
2 47724  53.0567 359.1412 0001508 109.1197 250.9956 15.06417236222231
STARLINK-2131           
1 47728U 21017G   25062.42812404  .00001900  00000+0  14642-3 0  9998
2 47728  53.0552  68.2716 0000960 101.5875 258.5222 15.06401310221969
STARLINK-2140           
1 47730U 21017J   25062.45070136  .00000878  00000+0  77845-4 0  9990
2 47730  53.0536  83.1797 0001378  96.4919 263.6227 15.06404662221701
STARLINK-2141           
1 47731U 21017K   25062.32400101  .00000474  00000+0  50708-4 0  9997
2 47731  53.0527  78.7405 0001437  84.6810 275.4342 15.06396293221768
STARLINK-2142           
1 47732U 21017L   25062.49589581  .00007355  00000+0  51202-3 0  9990
2 47732  53.0545 353.2101 0001273  92.3529 267.7605 15.06407699222337
STARLINK-2143           
1 47733U 21017M   25062.44470794 -.00000846  00000+0 -37880-4 0  9998
2 47733  53.0541  88.2029 0001404  96.1453 263.9696 15.06400697221688
STARLINK-2144           
1 47734U 21017N   25062.72945557  .00004683  00000+0  33304-3 0  9991
2 47734  53.0533  76.9231 0001458  84.5645 275.5510 15.06400973221188
STARLINK-2146           
1 47735U 21017P   25062.14691685  .00018173  00000+0  12203-2 0  9991
2 47735  53.0558   4.6884 0001553 107.7434 252.3725 15.06868665222771
STARLINK-2147           
1 47736U 21017Q   25062.43180381 -.00000578  00000+0 -19878-4 0  9999
2 47736  53.0559  68.2597 0001794 103.5011 256.6178 15.06407673221969
STARLINK-2150           
1 47739U 21017T   25062.49401639  .00003217  00000+0  23477-3 0  9990
2 47739  53.0527  92.9767 0001437  83.3632 276.7520 15.06395661221628
STARLINK-2156           
1 47742U 21017W   25062.30280064  .00002103  00000+0  16005-3 0  9993
2 47742  53.0537  68.8372 0001500  95.0540 265.0620 15.06399068221948
STARLINK-2159           
1 47745U 21017Z   25062.73314536  .00000325  00000+0  40720-4 0  9991
2 47745  53.0544  76.9094 0001709 109.0246 251.0928 15.06380519221183
STARLINK-2160           
1 47746U 21017AA  25062.72577406 -.00003180  00000+0 -19472-3 0  9991
2 47746  53.0560  76.9445 0001756  74.5996 285.5187 15.06385191221182
STARLINK-2161           
1 47747U 21017AB  25062.32492092  .00000306  00000+0  39443-4 0  9991
2 47747  53.0551  68.7395 0001317  89.5422 270.5718 15.06396593221923
STARLINK-2162           
1 47748U 21017AC  25062.45026384  .00007870  00000+0  54681-3 0  9996
2 47748  53.0540  68.1750 0002051 101.1656 258.9564 15.06387202221912
STARLINK-2163           
1 47749U 21017AD  25062.73035345  .00026749  00000+0  18055-2 0  9995
2 47749  53.0525  66.9108 0000809 101.7557 258.3523 15.06448683221329
STARLINK-2164           
1 47750U 21017AE  25062.44286555  .00000581  00000+0  57887-4 0  9990
2 47750  53.0545  68.2102 0001378  97.5996 262.5150 15.06397417221919
STARLINK-2169           
1 47752U 21017AG  25062.44056196  .00003808  00000+0  27435-3 0  9998
2 47752  53.0540  73.2185 0001318  89.9275 270.1865 15.06405069221890
STARLINK-2170           
1 47753U 21017AH  25062.34980253  .00005077  00000+0  35935-3 0  9992
2 47753  53.0536  78.6277 0001234  84.2043 275.9086 15.06411167221800
STARLINK-2171           
1 47754U 21017AJ  25062.45300312  .00001823  00000+0  14118-3 0  9992
2 47754  53.0543  78.1599 0001461  94.5952 265.5204 15.06410034221782
STARLINK-2178           
1 47760U 21017AQ  25062.79855065 -.00003849  00000+0 -23972-3 0  9996
2 47760  53.0546  86.6084 0001610 107.0380 253.0785 15.06387699221052
STARLINK-2180           
1 47762U 21017AS  25062.45715495  .00007386  00000+0  51448-3 0  9990
2 47762  53.0533  93.1562 0001488  74.9448 285.1706 15.06382635221586
STARLINK-2184           
1 47766U 21017AW  25062.45989765  .00000731  00000+0  67943-4 0  9992
2 47766  53.0538  93.1209 0001497  98.5149 261.6010 15.06394662221550
STARLINK-2185           
1 47767U 21017AX  25062.41981546  .00004275  00000+0  30568-3 0  9997
2 47767  53.0541  78.3127 0001538 109.4393 250.6762 15.06407310221825
STARLINK-2193           
1 47770U 21017BA  25062.34472951 -.00000653  00000+0 -24926-4 0  9998
2 47770  53.0558  73.6487 0001661  96.2431 263.8748 15.06401908221857
STARLINK-2194           
1 47771U 21017BB  25062.42213322  .00002455  00000+0  18362-3 0  9999
2 47771  53.0547  73.3020 0001433  92.3730 267.7423 15.06400555221212
STARLINK-2195           
1 47772U 21017BC  25062.47788300  .00002185  00000+0  16549-3 0  9993
2 47772  53.0533  88.0496 0001447  97.3296 262.7857 15.06405693221646
STARLINK-2196           
1 47773U 21017BD  25062.47420704  .00006836  00000+0  47738-3 0  9996
2 47773  53.0525  88.0684 0001531  77.6562 282.4598 15.06397347221634
STARLINK-2209           
1 47776U 21017BG  25062.77368458  .00001790  00000+0  13905-3 0  9992
2 47776  53.0526  76.7211 0001439  99.2086 260.9066 15.06398184221198
STARLINK-2210           
1 47777U 21017BH  25062.44563159  .00002065  00000+0  15744-3 0  9991
2 47777  53.0534  78.1927 0001538  96.0516 264.0648 15.06404139221796
STARLINK-2211           
1 47778U 21017BJ  25062.47880270  .00007154  00000+0  49889-3 0  9992
2 47778  53.0531  78.0460 0001682 103.3289 256.7887 15.06383376221796
STARLINK-2213           
1 47780U 21017BL  25062.76996738 -.00002472  00000+0 -14700-3 0  9998
2 47780  53.0549  76.7364 0001613 105.9867 254.1300 15.06418713221202
STARLINK-2257           
1 47787U 21018A   25062.42352594 -.00000553  00000+0 -18211-4 0  9995
2 47787  53.0555 118.2954 0001417  92.2641 267.8510 15.06403521220634
STARLINK-2314           
1 47788U 21018B   25062.50137831  .00003885  00000+0  27957-3 0  9995
2 47788  53.0537  92.9424 0001439  97.2070 262.9082 15.06402351221013
STARLINK-2315           
1 47789U 21018C   25062.41800583  .00025497  00000+0  17244-2 0  9997
2 47789  53.0527  98.3244 0001352  94.8174 265.2969 15.06400687220924
STARLINK-2319           
1 47790U 21018D   25062.45945605 -.00000996  00000+0 -47955-4 0  9991
2 47790  53.0543  88.1333 0001390  93.2690 266.8458 15.06399354221073
STARLINK-2322           
1 47791U 21018E   25062.41246104  .00007358  00000+0  51233-3 0  9996
2 47791  53.0526 118.3461 0001405 103.2649 256.8496 15.06400946220649
STARLINK-2334           
1 47792U 21018F   25062.35901806  .00003774  00000+0  27215-3 0  9998
2 47792  53.0522  98.5853 0001423  98.1752 261.9398 15.06395337220912
STARLINK-2338           
1 47793U 21018G   25062.50644953  .00004444  00000+0  31703-3 0  9995
2 47793  53.0541  97.9211 0001637 106.3639 253.7530 15.06401115220928
STARLINK-2373           
1 47796U 21018K   25062.38113093  .00007395  00000+0  51477-3 0  9998
2 47796  53.0521  98.4863 0001476  98.7412 261.3744 15.06402478220916
STARLINK-2377           
1 47797U 21018L   25062.48389087  .00005216  00000+0  36887-3 0  9996
2 47797  53.0525 123.0235 0001398 100.8880 259.2266 15.06393001220574
STARLINK-2379           
1 47798U 21018M   25062.79027544  .00002810  00000+0  20743-3 0  9999
2 47798  53.0537  96.6499 0001307  97.9867 262.1270 15.06400551220629
STARLINK-2380           
1 47799U 21018N   25062.52119702 -.00000647  00000+0 -24537-4 0  9993
2 47799  53.0534  97.8592 0001447  83.4325 276.6828 15.06396963220583
STARLINK-2381           
1 47800U 21018P   25062.47697428  .00003224  00000+0  23526-3 0  9994
2 47800  53.0529  98.0536 0001552  86.6474 273.4692 15.06399985220927
STARLINK-2383           
1 47802U 21018R   25062.42490385  .00010812  00000+0  74356-3 0  9992
2 47802  53.0523 123.2903 0001594  96.3282 263.7888 15.06404632220579
STARLINK-2384           
1 47803U 21018S   25062.54101865  .00001087  00000+0  79479-4 0  9994
2 47803  53.0542  97.6296 0001500  88.8027 271.3137 15.12112657220594
STARLINK-2385           
1 47804U 21018T   25062.50276479  .00003546  00000+0  25674-3 0  9994
2 47804  53.0537  97.9395 0001495 101.2721 258.8436 15.06414568220924
STARLINK-2386           
1 47805U 21018U   25062.80135823  .00000770  00000+0  70599-4 0  9998
2 47805  53.0528  96.8395 0001418  83.3493 276.7658 15.06399123220625
STARLINK-2387           
1 47806U 21018V   25062.40739245  .00005771  00000+0  40589-3 0  9994
2 47806  53.0531 113.3795 0001381  67.9241 292.1894 15.06410102220767
STARLINK-2388           
1 47807U 21018W   25062.79488124  .00000544  00000+0  55407-4 0  9993
2 47807  53.0530  86.6289 0001958 112.0685 248.0512 15.06403559220766
STARLINK-2389           
1 47808U 21018X   25062.35946009  .00005777  00000+0  40653-3 0  9996
2 47808  53.0535 113.5848 0001841 123.9899 236.1265 15.06388688220355
STARLINK-2391           
1 47810U 21018Z   25062.45577416  .00010509  00000+0  72317-3 0  9993
2 47810  53.0534 128.1514 0001515  99.2269 260.8892 15.06409063220556
STARLINK-2393           
1 47812U 21018AB  25062.40046789  .00007338  00000+0  51069-3 0  9991
2 47812  53.0544 128.4074 0001711  95.0128 265.1056 15.06421556220482
